start=new Date('2023-03-20T00:00:00.000Z').valueOf();
sats=[{"REF_FRAME":"TEME","GP_ID":"228480043","REV_AT_EPOCH":"3173","OBJECT_ID":"2022-104V","MEAN_ANOMALY":"278.7567","TIME_SYSTEM":"UTC","SEMIMAJOR_AXIS":"6917.879","MEAN_MOTION_DOT":"0.00003071","OBJECT_NAME":"STARLINK-4591","NORAD_CAT_ID":"53607","CLASSIFICATION_TYPE":"U","RCS_SIZE":"LARGE","EPHEMERIS_TYPE":"0","PERIOD":"95.438","COUNTRY_CODE":"US","SITE":"AFETR","ECCENTRICITY":"0.00011850","APOAPSIS":"540.564","FILE":"3865354","ELEMENT_SET_NO":"999","LAUNCH_DATE":"2022-08-28","MEAN_ELEMENT_THEORY":"SGP4","EPOCH":"2023-03-19T16:18:09.523296","DECAY_DATE":null,"ARG_OF_PERICENTER":"81.3559","INCLINATION":"53.2150","PERIAPSIS":"538.924","CENTER_NAME":"EARTH","RA_OF_ASC_NODE":"74.4591","BSTAR":"0.00021097000000","MEAN_MOTION_DDOT":"0.0000000000000","TLE_LINE1":"1 53607U 22104V   23078.67927689  .00003071  00000-0  21097-3 0  9997","OBJECT_TYPE":"PAYLOAD","TLE_LINE2":"2 53607  53.2150  74.4591 0001185  81.3559 278.7567 15.08840527 31731","MEAN_MOTION":"15.08840527"},{"SEMIMAJOR_AXIS":"6917.873","OBJECT_NAME":"STARLINK-4647","NORAD_CAT_ID":"53608","MEAN_MOTION_DOT":"0.00003080","RCS_SIZE":"LARGE","CLASSIFICATION_TYPE":"U","PERIOD":"95.437","EPHEMERIS_TYPE":"0","SITE":"AFETR","COUNTRY_CODE":"US","ECCENTRICITY":"0.00009290","REF_FRAME":"TEME","REV_AT_EPOCH":"3168","GP_ID":"228478793","MEAN_ANOMALY":"269.3876","OBJECT_ID":"2022-104W","TIME_SYSTEM":"UTC","CENTER_NAME":"EARTH","PERIAPSIS":"539.095","INCLINATION":"53.2179","RA_OF_ASC_NODE":"69.5427","MEAN_MOTION_DDOT":"0.0000000000000","BSTAR":"0.00021147000000","TLE_LINE1":"1 53608U 22104W   23078.69263323  .00003080  00000-0  21147-3 0  9994","TLE_LINE2":"2 53608  53.2179  69.5427 0000929  90.7223 269.3876 15.08842446 31688","OBJECT_TYPE":"PAYLOAD","MEAN_MOTION":"15.08842446","APOAPSIS":"540.381","FILE":"3865354","ELEMENT_SET_NO":"999","LAUNCH_DATE":"2022-08-28","MEAN_ELEMENT_THEORY":"SGP4","ARG_OF_PERICENTER":"90.7223","DECAY_DATE":null,"EPOCH":"2023-03-19T16:37:23.511072"},{"ELEMENT_SET_NO":"999","FILE":"3865354","APOAPSIS":"540.628","EPOCH":"2023-03-19T17:05:47.464224","ARG_OF_PERICENTER":"115.3641","DECAY_DATE":null,"LAUNCH_DATE":"2022-08-28","MEAN_ELEMENT_THEORY":"SGP4","TLE_LINE1":"1 53609U 22104X   23078.71235491  .00004748  00000-0  31620-3 0  9992","MEAN_MOTION_DDOT":"0.0000000000000","BSTAR":"0.00031620000000","RA_OF_ASC_NODE":"73.9575","INCLINATION":"53.2174","CENTER_NAME":"EARTH","PERIAPSIS":"538.859","MEAN_MOTION":"15.08840557","TLE_LINE2":"2 53609  53.2174  73.9575 0001279 115.3641 244.7484 15.08840557 31744","OBJECT_TYPE":"PAYLOAD","TIME_SYSTEM":"UTC","OBJECT_ID":"2022-104X","MEAN_ANOMALY":"244.7484","REV_AT_EPOCH":"3174","GP_ID":"228479043","REF_FRAME":"TEME","EPHEMERIS_TYPE":"0","PERIOD":"95.438","CLASSIFICATION_TYPE":"U","RCS_SIZE":"LARGE","OBJECT_NAME":"STARLINK-4660","MEAN_MOTION_DOT":"0.00004748","NORAD_CAT_ID":"53609","SEMIMAJOR_AXIS":"6917.879","ECCENTRICITY":"0.00012790","COUNTRY_CODE":"US","SITE":"AFETR"},{"ECCENTRICITY":"0.00013930","SITE":"AFETR","COUNTRY_CODE":"US","PERIOD":"95.437","EPHEMERIS_TYPE":"0","RCS_SIZE":"LARGE","CLASSIFICATION_TYPE":"U","OBJECT_NAME":"STARLINK-4610","MEAN_MOTION_DOT":"0.00003368","NORAD_CAT_ID":"53610","SEMIMAJOR_AXIS":"6917.866","TIME_SYSTEM":"UTC","MEAN_ANOMALY":"272.8934","OBJECT_ID":"2022-104Y","REV_AT_EPOCH":"3168","GP_ID":"228479795","REF_FRAME":"TEME","MEAN_MOTION":"15.08844716","OBJECT_TYPE":"PAYLOAD","TLE_LINE2":"2 53610  53.2191  69.4975 0001393  87.2218 272.8934 15.08844716 31689","TLE_LINE1":"1 53610U 22104Y   23078.68622376  .00003368  00000-0  22956-3 0  9991","MEAN_MOTION_DDOT":"0.0000000000000","BSTAR":"0.00022956000000","RA_OF_ASC_NODE":"69.4975","PERIAPSIS":"538.767","CENTER_NAME":"EARTH","INCLINATION":"53.2191","DECAY_DATE":null,"ARG_OF_PERICENTER":"87.2218","EPOCH":"2023-03-19T16:28:09.732864","MEAN_ELEMENT_THEORY":"SGP4","LAUNCH_DATE":"2022-08-28","ELEMENT_SET_NO":"999","FILE":"3865354","APOAPSIS":"540.695"},{"GP_ID":"228480544","REV_AT_EPOCH":"3180","REF_FRAME":"TEME","TIME_SYSTEM":"UTC","MEAN_ANOMALY":"270.7571","OBJECT_ID":"2022-104Z","NORAD_CAT_ID":"53611","OBJECT_NAME":"STARLINK-4650","MEAN_MOTION_DOT":"0.00004724","SEMIMAJOR_AXIS":"6917.894","PERIOD":"95.438","EPHEMERIS_TYPE":"0","RCS_SIZE":"LARGE","CLASSIFICATION_TYPE":"U","SITE":"AFETR","COUNTRY_CODE":"US","ECCENTRICITY":"0.00013570","FILE":"3865354","APOAPSIS":"540.698","ELEMENT_SET_NO":"999","LAUNCH_DATE":"2022-08-28","MEAN_ELEMENT_THEORY":"SGP4","ARG_OF_PERICENTER":"89.3576","DECAY_DATE":null,"EPOCH":"2023-03-19T16:42:42.401376","RA_OF_ASC_NODE":"69.5662","PERIAPSIS":"538.820","CENTER_NAME":"EARTH","INCLINATION":"53.2164","TLE_LINE1":"1 53611U 22104Z   23078.69632409  .00004724  00000-0  31474-3 0  9993","MEAN_MOTION_DDOT":"0.0000000000000","BSTAR":"0.00031474000000","TLE_LINE2":"2 53611  53.2164  69.5662 0001357  89.3576 270.7571 15.08835613 31808","OBJECT_TYPE":"PAYLOAD","MEAN_MOTION":"15.08835613"},{"MEAN_ELEMENT_THEORY":"SGP4","LAUNCH_DATE":"2022-08-28","DECAY_DATE":null,"ARG_OF_PERICENTER":"84.4577","EPOCH":"2023-03-19T16:21:28.994112","FILE":"3865354","APOAPSIS":"540.697","ELEMENT_SET_NO":"999","TLE_LINE2":"2 53612  53.2177  69.4696 0001353  84.4577 275.6569 15.08834836 31685","OBJECT_TYPE":"PAYLOAD","MEAN_MOTION":"15.08834836","RA_OF_ASC_NODE":"69.4696","CENTER_NAME":"EARTH","PERIAPSIS":"538.825","INCLINATION":"53.2177","TLE_LINE1":"1 53612U 22104AA  23078.68158558  .00001741  00000-0  12748-3 0  9990","BSTAR":"0.00012748000000","MEAN_MOTION_DDOT":"0.0000000000000","GP_ID":"228479294","REV_AT_EPOCH":"3168","REF_FRAME":"TEME","TIME_SYSTEM":"UTC","MEAN_ANOMALY":"275.6569","OBJECT_ID":"2022-104AA","SITE":"AFETR","COUNTRY_CODE":"US","ECCENTRICITY":"0.00013530","NORAD_CAT_ID":"53612","OBJECT_NAME":"STARLINK-4658","MEAN_MOTION_DOT":"0.00001741","SEMIMAJOR_AXIS":"6917.896","PERIOD":"95.438","EPHEMERIS_TYPE":"0","RCS_SIZE":"LARGE","CLASSIFICATION_TYPE":"U"},{"OBJECT_NAME":"STARLINK-4655","NORAD_CAT_ID":"53613","MEAN_MOTION_DOT":"0.00002794","SEMIMAJOR_AXIS":"6917.865","PERIOD":"95.437","EPHEMERIS_TYPE":"0","RCS_SIZE":"LARGE","CLASSIFICATION_TYPE":"U","SITE":"AFETR","COUNTRY_CODE":"US","ECCENTRICITY":"0.00012110","GP_ID":"228479544","REV_AT_EPOCH":"3168","REF_FRAME":"TEME","TIME_SYSTEM":"UTC","MEAN_ANOMALY":"271.2394","OBJECT_ID":"2022-104AB","RA_OF_ASC_NODE":"69.5186","PERIAPSIS":"538.893","CENTER_NAME":"EARTH","INCLINATION":"53.2181","TLE_LINE1":"1 53613U 22104AB  23078.68894945  .00002794  00000-0  19356-3 0  9999","MEAN_MOTION_DDOT":"0.0000000000000","BSTAR":"0.00019356000000","TLE_LINE2":"2 53613  53.2181  69.5186 0001211  88.8737 271.2394 15.08844910 31687","OBJECT_TYPE":"PAYLOAD","MEAN_MOTION":"15.08844910","FILE":"3865354","APOAPSIS":"540.568","ELEMENT_SET_NO":"999","MEAN_ELEMENT_THEORY":"SGP4","LAUNCH_DATE":"2022-08-28","DECAY_DATE":null,"ARG_OF_PERICENTER":"88.8737","EPOCH":"2023-03-19T16:32:05.232480"},{"OBJECT_ID":"2022-104AE","MEAN_ANOMALY":"258.8051","TIME_SYSTEM":"UTC","REF_FRAME":"TEME","GP_ID":"228447106","REV_AT_EPOCH":"3189","ECCENTRICITY":"0.00012990","COUNTRY_CODE":"US","SITE":"AFETR","CLASSIFICATION_TYPE":"U","RCS_SIZE":"LARGE","EPHEMERIS_TYPE":"0","PERIOD":"95.437","SEMIMAJOR_AXIS":"6917.833","MEAN_MOTION_DOT":"0.00007672","NORAD_CAT_ID":"53616","OBJECT_NAME":"STARLINK-4605","EPOCH":"2023-03-19T10:13:12.948384","DECAY_DATE":null,"ARG_OF_PERICENTER":"101.3088","MEAN_ELEMENT_THEORY":"SGP4","LAUNCH_DATE":"2022-08-28","ELEMENT_SET_NO":"999","APOAPSIS":"540.596","FILE":"3865049","MEAN_MOTION":"15.08855657","TLE_LINE2":"2 53616  53.2167  60.5479 0001299 101.3088 258.8051 15.08855657 31890","OBJECT_TYPE":"PAYLOAD","BSTAR":"0.00049940000000","MEAN_MOTION_DDOT":"0.0000000000000","TLE_LINE1":"1 53616U 22104AE  23078.42584431  .00007672  00000-0  49940-3 0  9992","INCLINATION":"53.2167","PERIAPSIS":"538.799","CENTER_NAME":"EARTH","RA_OF_ASC_NODE":"60.5479"},{"ECCENTRICITY":"0.00009530","SITE":"AFETR","COUNTRY_CODE":"US","PERIOD":"95.437","EPHEMERIS_TYPE":"0","RCS_SIZE":"LARGE","CLASSIFICATION_TYPE":"U","OBJECT_NAME":"STARLINK-4601","MEAN_MOTION_DOT":"0.00007475","NORAD_CAT_ID":"53617","SEMIMAJOR_AXIS":"6917.874","TIME_SYSTEM":"UTC","MEAN_ANOMALY":"273.4218","OBJECT_ID":"2022-104AF","GP_ID":"228480044","REV_AT_EPOCH":"3168","REF_FRAME":"TEME","MEAN_MOTION":"15.08842041","TLE_LINE2":"2 53617  53.2168  69.4495 0000953  86.6884 273.4218 15.08842041 31681","OBJECT_TYPE":"PAYLOAD","TLE_LINE1":"1 53617U 22104AF  23078.67789721  .00007475  00000-0  48718-3 0  9992","MEAN_MOTION_DDOT":"0.0000000000000","BSTAR":"0.00048718000000","RA_OF_ASC_NODE":"69.4495","CENTER_NAME":"EARTH","PERIAPSIS":"539.080","INCLINATION":"53.2168","ARG_OF_PERICENTER":"86.6884","DECAY_DATE":null,"EPOCH":"2023-03-19T16:16:10.318944","LAUNCH_DATE":"2022-08-28","MEAN_ELEMENT_THEORY":"SGP4","ELEMENT_SET_NO":"999","FILE":"3865354","APOAPSIS":"540.398"},{"LAUNCH_DATE":"2022-08-28","MEAN_ELEMENT_THEORY":"SGP4","DECAY_DATE":null,"ARG_OF_PERICENTER":"69.7634","EPOCH":"2023-03-19T16:00:15.022656","APOAPSIS":"540.409","FILE":"3865354","ELEMENT_SET_NO":"999","TLE_LINE2":"2 53618  53.2157  69.3827 0000974  69.7634 290.3463 15.08843454 31102","OBJECT_TYPE":"PAYLOAD","MEAN_MOTION":"15.08843454","PERIAPSIS":"539.061","CENTER_NAME":"EARTH","INCLINATION":"53.2157","RA_OF_ASC_NODE":"69.3827","BSTAR":"0.00010146000000","MEAN_MOTION_DDOT":"0.0000000000000","TLE_LINE1":"1 53618U 22104AG  23078.66684054  .00001327  00000-0  10146-3 0  9999","REF_FRAME":"TEME","GP_ID":"228478794","REV_AT_EPOCH":"3110","MEAN_ANOMALY":"290.3463","OBJECT_ID":"2022-104AG","TIME_SYSTEM":"UTC","SITE":"AFETR","COUNTRY_CODE":"US","ECCENTRICITY":"0.00009740","SEMIMAJOR_AXIS":"6917.870","NORAD_CAT_ID":"53618","OBJECT_NAME":"STARLINK-4604","MEAN_MOTION_DOT":"0.00001327","RCS_SIZE":"LARGE","CLASSIFICATION_TYPE":"U","PERIOD":"95.437","EPHEMERIS_TYPE":"0"}];
